{
  "type": "FeatureCollection",
  "features": [
    {
      "type": "Feature",
      "properties": {
        "name": "wheregroup_icon_outer"
      },
      "geometry": {
        "type": "LineString",
        "coordinates": [
          [
            5.2,
            140.6
          ],
          [
            9.47676,
            145.9887
          ],
          [
            14.1203,
            150.9719
          ],
          [
            19.1131,
            155.5379
          ],
          [
            24.4375,
            159.675
          ],
          [
            30.076,
            163.3715
          ],
          [
            36.0109,
            166.61562
          ],
          [
            42.2248,
            169.3957
          ],
          [
            48.7,
            171.7
          ],
          [
            47.8813,
            170.07188
          ],
          [
            47.25,
            168.35
          ],
          [
            46.8438,
            166.5531
          ],
          [
            46.7,
            164.7
          ],
          [
            46.7827,
            162.499
          ],
          [
            47.0444,
            160.3585
          ],
          [
            47.4768,
            158.2788
          ],
          [
            48.0721,
            156.2602
          ],
          [
            48.8221,
            154.3027
          ],
          [
            49.7188,
            152.4067
          ],
          [
            51.9203,
            148.8
          ],
          [
            54.6122,
            145.4417
          ],
          [
            57.7303,
            142.3336
          ],
          [
            61.2101,
            139.4774
          ],
          [
            64.9875,
            136.875
          ],
          [
            68.9981,
            134.528
          ],
          [
            73.1775,
            132.4383
          ],
          [
            77.4616,
            130.6075
          ],
          [
            81.7859,
            129.0375
          ],
          [
            86.0863,
            127.73
          ],
          [
            90.2982,
            126.6867
          ],
          [
            94.3576,
            125.9095
          ],
          [
            98.2,
            125.4
          ],
          [
            101.373,
            125.2122
          ],
          [
            104.665,
            125.252
          ],
          [
            108.017,
            125.5244
          ],
          [
            111.37,
            126.0344
          ],
          [
            114.665,
            126.787
          ],
          [
            117.844,
            127.7871
          ],
          [
            120.846,
            129.0398
          ],
          [
            123.612,
            130.55
          ],
          [
            126.085,
            132.3227
          ],
          [
            128.205,
            134.3629
          ],
          [
            129.912,
            136.6755
          ],
          [
            131.148,
            139.2656
          ],
          [
            131.571,
            140.6663
          ],
          [
            131.854,
            142.1381
          ],
          [
            131.99,
            143.6819
          ],
          [
            131.971,
            145.298
          ],
          [
            131.79,
            146.9873
          ],
          [
            131.439,
            148.7503
          ],
          [
            130.912,
            150.5877
          ],
          [
            130.2,
            152.5
          ],
          [
            129.287,
            154.3969
          ],
          [
            128.225,
            156.2
          ],
          [
            125.8,
            159.6
          ],
          [
            130.795,
            156.1279
          ],
          [
            135.575,
            152.3922
          ],
          [
            140.13,
            148.401
          ],
          [
            144.45,
            144.1625
          ],
          [
            148.527,
            139.685
          ],
          [
            152.35,
            134.9766
          ],
          [
            155.911,
            130.0455
          ],
          [
            159.2,
            124.9
          ],
          [
            156.1,
            127.225
          ],
          [
            154.447,
            128.2469
          ],
          [
            152.7,
            129.1
          ],
          [
            150.791,
            129.8304
          ],
          [
            148.965,
            130.3585
          ],
          [
            147.219,
            130.6932
          ],
          [
            145.553,
            130.8432
          ],
          [
            143.966,
            130.8171
          ],
          [
            142.456,
            130.6238
          ],
          [
            141.023,
            130.272
          ],
          [
            139.664,
            129.7703
          ],
          [
            138.38,
            129.1276
          ],
          [
            137.168,
            128.3526
          ],
          [
            134.958,
            126.4404
          ],
          [
            133.026,
            124.1038
          ],
          [
            131.362,
            121.4125
          ],
          [
            129.958,
            118.4365
          ],
          [
            128.803,
            115.2455
          ],
          [
            127.888,
            111.9095
          ],
          [
            127.205,
            108.4984
          ],
          [
            126.743,
            105.0821
          ],
          [
            126.495,
            101.7303
          ],
          [
            126.45,
            98.513
          ],
          [
            126.6,
            95.5
          ],
          [
            127.02,
            91.8709
          ],
          [
            127.681,
            87.9691
          ],
          [
            128.584,
            83.8664
          ],
          [
            129.733,
            79.6344
          ],
          [
            131.128,
            75.345
          ],
          [
            132.772,
            71.07
          ],
          [
            134.666,
            66.881
          ],
          [
            136.812,
            62.85
          ],
          [
            139.213,
            59.049
          ],
          [
            141.871,
            55.549
          ],
          [
            144.786,
            52.422
          ],
          [
            147.961,
            49.741
          ],
          [
            149.647,
            48.589
          ],
          [
            151.398,
            47.576
          ],
          [
            153.215,
            46.71
          ],
          [
            155.099,
            46.0
          ],
          [
            157.049,
            45.455
          ],
          [
            159.066,
            45.084
          ],
          [
            161.149,
            44.896
          ],
          [
            163.3,
            44.9
          ],
          [
            164.738,
            45.083
          ],
          [
            166.175,
            45.463
          ],
          [
            167.575,
            46.011
          ],
          [
            168.9,
            46.7
          ],
          [
            166.726,
            40.95
          ],
          [
            164.181,
            35.409
          ],
          [
            161.271,
            30.089
          ],
          [
            158.0,
            25.0
          ],
          [
            154.373,
            20.155
          ],
          [
            150.394,
            15.566
          ],
          [
            146.068,
            11.243
          ],
          [
            141.4,
            7.2
          ],
          [
            142.9,
            12.275
          ],
          [
            143.453,
            14.878
          ],
          [
            143.8,
            17.5
          ],
          [
            144.082,
            22.342
          ],
          [
            143.889,
            27.097
          ],
          [
            143.241,
            31.734
          ],
          [
            142.153,
            36.223
          ],
          [
            140.645,
            40.534
          ],
          [
            138.734,
            44.635
          ],
          [
            136.438,
            48.497
          ],
          [
            133.775,
            52.088
          ],
          [
            130.763,
            55.377
          ],
          [
            127.419,
            58.335
          ],
          [
            123.762,
            60.93
          ],
          [
            119.809,
            63.133
          ],
          [
            115.579,
            64.912
          ],
          [
            111.089,
            66.236
          ],
          [
            106.356,
            67.076
          ],
          [
            101.4,
            67.4
          ],
          [
            98.565,
            67.359
          ],
          [
            95.7624,
            67.162
          ],
          [
            92.9958,
            66.815
          ],
          [
            90.2691,
            66.322
          ],
          [
            84.95,
            64.915
          ],
          [
            79.8344,
            62.977
          ],
          [
            74.952,
            60.542
          ],
          [
            70.3324,
            57.646
          ],
          [
            66.0052,
            54.324
          ],
          [
            62.0,
            50.613
          ],
          [
            58.3463,
            46.546
          ],
          [
            55.0738,
            42.159
          ],
          [
            52.2121,
            37.488
          ],
          [
            49.7906,
            32.567
          ],
          [
            47.8391,
            27.433
          ],
          [
            46.3871,
            22.12
          ],
          [
            45.4642,
            16.664
          ],
          [
            45.1,
            11.1
          ],
          [
            45.1672,
            8.178
          ],
          [
            45.4875,
            5.275
          ],
          [
            46.0141,
            2.409
          ],
          [
            46.7,
            -0.4
          ],
          [
            43.0875,
            1.539
          ],
          [
            39.5643,
            3.604
          ],
          [
            36.1327,
            5.794
          ],
          [
            32.7953,
            8.105
          ],
          [
            29.5546,
            10.534
          ],
          [
            26.4131,
            13.081
          ],
          [
            23.3732,
            15.741
          ],
          [
            20.4375,
            18.513
          ],
          [
            17.6084,
            21.393
          ],
          [
            14.8885,
            24.38
          ],
          [
            12.2802,
            27.471
          ],
          [
            9.78594,
            30.664
          ],
          [
            7.40833,
            33.956
          ],
          [
            5.1498,
            37.344
          ],
          [
            3.01287,
            40.826
          ],
          [
            1.0,
            44.4
          ],
          [
            4.55938,
            43.377
          ],
          [
            8.175,
            42.588
          ],
          [
            11.8281,
            42.08
          ],
          [
            15.5,
            41.9
          ],
          [
            21.1377,
            42.246
          ],
          [
            26.6645,
            43.151
          ],
          [
            32.0441,
            44.587
          ],
          [
            37.2406,
            46.527
          ],
          [
            42.218,
            48.94
          ],
          [
            46.9402,
            51.798
          ],
          [
            51.3712,
            55.074
          ],
          [
            55.475,
            58.738
          ],
          [
            59.2155,
            62.761
          ],
          [
            62.5566,
            67.116
          ],
          [
            65.4625,
            71.773
          ],
          [
            67.8969,
            76.7047
          ],
          [
            69.8239,
            81.8817
          ],
          [
            71.2074,
            87.2756
          ],
          [
            71.6841,
            90.045
          ],
          [
            72.0115,
            92.8579
          ],
          [
            72.1849,
            95.7108
          ],
          [
            72.2,
            98.6
          ],
          [
            71.8137,
            103.7494
          ],
          [
            70.9004,
            108.6846
          ],
          [
            69.4908,
            113.3856
          ],
          [
            67.6156,
            117.8328
          ],
          [
            65.3057,
            122.0064
          ],
          [
            62.5918,
            125.8865
          ],
          [
            59.5046,
            129.4535
          ],
          [
            56.075,
            132.6875
          ],
          [
            52.3336,
            135.5688
          ],
          [
            48.3113,
            138.0775
          ],
          [
            44.0388,
            140.194
          ],
          [
            39.5469,
            141.8984
          ],
          [
            34.8663,
            143.171
          ],
          [
            30.0277,
            143.992
          ],
          [
            25.0621,
            144.3416
          ],
          [
            20.0,
            144.2
          ],
          [
            16.1969,
            143.7781
          ],
          [
            12.45,
            143.0
          ],
          [
            8.77813,
            141.9219
          ],
          [
            5.2,
            140.6
          ],
          [
            5.2,
            140.6
          ]
        ]
      }
    },
    {
      "type": "Feature",
      "properties": {
        "name": "wheregroup_icon_inner"
      },
      "geometry": {
        "type": "LineString",
        "coordinates": [
          [
            62.7,
            164.0
          ],
          [
            62.8766,
            166.2089
          ],
          [
            63.4189,
            168.15723
          ],
          [
            64.2897,
            169.85857
          ],
          [
            65.4516,
            171.32656
          ],
          [
            66.8671,
            172.57483
          ],
          [
            68.499,
            173.61699
          ],
          [
            70.3099,
            174.46667
          ],
          [
            72.2625,
            175.1375
          ],
          [
            74.3194,
            175.643091
          ],
          [
            76.4432,
            175.99707
          ],
          [
            80.7422,
            176.304687
          ],
          [
            84.8607,
            176.169336
          ],
          [
            88.5,
            175.7
          ],
          [
            92.9111,
            174.73809
          ],
          [
            97.4266,
            173.34844
          ],
          [
            101.907,
            171.5252
          ],
          [
            106.213,
            169.2625
          ],
          [
            108.256,
            167.96453
          ],
          [
            110.204,
            166.5545
          ],
          [
            112.039,
            165.0317
          ],
          [
            113.742,
            163.3953
          ],
          [
            115.298,
            161.6447
          ],
          [
            116.687,
            159.7791
          ],
          [
            117.894,
            157.7978
          ],
          [
            118.9,
            155.7
          ],
          [
            119.705,
            153.2206
          ],
          [
            120.014,
            150.9537
          ],
          [
            119.869,
            148.894
          ],
          [
            119.316,
            147.0359
          ],
          [
            118.398,
            145.3742
          ],
          [
            117.16,
            143.9033
          ],
          [
            115.646,
            142.6179
          ],
          [
            113.9,
            141.5125
          ],
          [
            111.967,
            140.5817
          ],
          [
            109.89,
            139.8201
          ],
          [
            107.715,
            139.2223
          ],
          [
            105.484,
            138.7828
          ],
          [
            101.036,
            138.3572
          ],
          [
            96.9,
            138.5
          ],
          [
            91.817,
            139.3988
          ],
          [
            86.2547,
            140.9656
          ],
          [
            83.4048,
            141.9973
          ],
          [
            80.5682,
            143.1934
          ],
          [
            77.7893,
            144.5529
          ],
          [
            75.1125,
            146.075
          ],
          [
            72.5822,
            147.7588
          ],
          [
            70.2428,
            149.6035
          ],
          [
            68.1386,
            151.6082
          ],
          [
            66.3141,
            153.7719
          ],
          [
            64.8135,
            156.0938
          ],
          [
            63.6814,
            158.573
          ],
          [
            62.9621,
            161.2087
          ],
          [
            62.7,
            164.0
          ],
          [
            62.7,
            164.0
          ]
        ]
      }
    }
  ]
}
